QIANFAN-96              
1 66038U 25233F   25308.44345182  .00000649  00000+0  26511-3 0  9993
2 66038  88.9950  66.4390 0015997 156.1615 204.0323 14.26155008  2589
QIANFAN-97              
1 66039U 25233G   25308.44335832  .00000655  00000+0  26757-3 0  9994
2 66039  88.9951  66.4390 0015567 155.6042 204.5892 14.26160938  2586
QIANFAN-98              
1 66040U 25233H   25308.44311576  .00000657  00000+0  26823-3 0  9991
2 66040  88.9951  66.4391 0015201 154.3335 205.8616 14.26182400  2581
QIANFAN-99              
1 66041U 25233J   25308.44298969  .00000662  00000+0  27022-3 0  9990
2 66041  88.9950  66.4389 0015345 153.4568 206.7414 14.26197893  2583
QIANFAN-100             
1 66042U 25233K   25308.44292023  .00000649  00000+0  26472-3 0  9999
2 66042  88.9951  66.4390 0015797 155.1385 205.0573 14.26213458  2588
QIANFAN-101             
1 66043U 25233L   25308.44061367  .00000436  00000+0  17427-3 0  9999
2 66043  88.9951  66.4386 0015731 153.3796 206.8208 14.26634554  2586
QIANFAN-102             
1 66044U 25233M   25308.44281610  .00000677  00000+0  27606-3 0  9992
2 66044  88.9950  66.4389 0016162 155.2440 204.9533 14.26217663  2583
QIANFAN-103             
1 66045U 25233N   25308.44253117  .00000672  00000+0  27419-3 0  9991
2 66045  88.9951  66.4390 0015554 154.0012 206.1966 14.26246859  2586
QIANFAN-104             
1 66046U 25233P   25308.44232130  .00000677  00000+0  27606-3 0  9997
2 66046  88.9951  66.4390 0015529 156.2769 203.9144 14.26267606  2588
QIANFAN-105             
1 66047U 25233Q   25308.44197231  .00000673  00000+0  27403-3 0  9991
2 66047  88.9950  66.4387 0015708 156.3956 203.7962 14.26326004  2586
QIANFAN-106             
1 66048U 25233R   25308.51214400  .00000656  00000+0  26706-3 0  9994
2 66048  88.9951  66.4308 0015605 155.8663 204.3265 14.26309432  2596
QIANFAN-107             
1 66049U 25233S   25308.44180096  .00000660  00000+0  26864-3 0  9990
2 66049  88.9950  66.4387 0016387 154.2450 205.9563 14.26338212  2583
